P/2012 F2 (PANSTARRS),e,14.7019,226.9877,33.3233,6.335215,0.0618105,0.54117469,213.1153,09/17.0/2022,2000,g 12.0,4.0
# From MPEC 2022-ED3
P/2012 G1 (PANSTARRS),e,12.1732,283.2768,266.1040,4.164868,0.1159584,0.32946108,83.1227,09/17.0/2022,2000,g 15.0,4.0
# From MPC 80898
P/2012 K3 (Gibbs),e,13.1908,125.8179,172.2399,3.627988,0.1426282,0.42271438,160.7221,09/17.0/2022,2000,g 15.0,4.0
# From MPC 88326
P/2012 NJ (La Sagra),e,84.5988,315.5786,338.3813,8.465440,0.0400156,0.84681735,149.8964,09/17.0/2022,2000,g 14.5,4.0
# From MPC 81470
P/2012 O1 (McNaught),e,7.4277,91.9402,238.3137,3.541535,0.1478825,0.59438439,191.3717,09/17.0/2022,2000,g 17.5,4.0
# From MPC 80899
P/2012 O2 (McNaught),e,24.4731,120.6844,183.4738,3.625851,0.1427543,0.53216655,175.5970,09/17.0/2022,2000,g 17.0,4.0
# From MPC 82320
P/2012 T2 (PANSTARRS),e,12.5661,73.7155,310.6914,5.729339,0.0718699,0.16221111,246.3617,09/17.0/2022,2000,g 10.0,4.0
# From MPC 80900
P/2012 T3 (PANSTARRS),e,9.5602,114.3780,195.5317,6.151103,0.0646063,0.61685320,244.6041,09/17.0/2022,2000,g 15.0,4.0
# From MPC 82720
P/2012 U2 (PANSTARRS),e,10.7595,185.3244,228.2469,7.133161,0.0517346,0.49972331,185.9257,09/17.0/2022,2000,g 12.5,4.0
# From MPC 84024
P/2012 US27 (Siding Spring),e,39.3662,49.2022,0.8172,5.165265,0.0839586,0.64817733,295.7466,09/17.0/2022,2000,g 13.5,4.0
# From MPC 82721
P/2012 WA34 (Lemmon-PANSTARRS),e,6.0803,93.5750,356.4987,4.685369,0.0971826,0.34433554,331.4051,09/17.0/2022,2000,g 13.5,4.0
# From MPC 82721
P/2013 AL76 (Catalina),e,144.8643,146.0050,27.0458,6.498739,0.0594923,0.68612689,212.7124,09/17.0/2022,2000,g 16.0,4.0
# From MPEC 2022-K19
P/2013 EW90,e,31.7919,160.2931,346.1001,4.113155,0.1181521,0.19465112,68.4902,09/17.0/2022,2000,g 14.3,4.0
# From MPC 91612
P/2013 G1 (Kowalski),e,5.4589,221.3224,51.5383,6.896133,0.0544246,0.51149969,174.3168,09/17.0/2022,2000,g 11.0,4.0
# From MPC 84025
P/2013 G4 (PANSTARRS),e,5.9161,339.6364,214.6364,4.439203,0.1053772,0.40929036,9.4494,09/17.0/2022,2000,g 15.0,4.0
# From MPC 91613
P/2013 J2 (McNaught),e,15.5149,289.3616,37.8506,6.222925,0.0634910,0.65746693,209.7633,09/17.0/2022,2000,g 13.0,4.0
# From MPC 86229
P/2013 N3 (PANSTARRS),e,2.1739,17.4674,323.9641,7.394353,0.0490178,0.59315565,153.5612,09/17.0/2022,2000,g 13.0,4.0
# From MPC 85834
P/2013 N5 (PANSTARRS),e,23.4610,187.1552,176.9350,6.797150,0.0556178,0.73251730,186.8126,09/17.0/2022,2000,g 17.0,4.0
# From MPC 85834
P/2013 P1 (PANSTARRS),e,18.7245,160.5931,138.2459,8.580457,0.0392138,0.60486722,136.7501,09/17.0/2022,2000,g 12.0,4.0
# From MPC 94671
P/2013 R3 (Catalina-PANSTARRS),e,0.8648,341.9778,11.2843,3.032341,0.1866539,0.27556809,257.3087,09/17.0/2022,2000,g 14.0,4.0
# From unp
P/2013 R3-A (Catalina-PANSTARRS),e,0.8642,341.9446,11.3233,3.032198,0.1866671,0.27553773,257.3496,09/17.0/2022,2000,g  9.0,4.0
# From MPEC 2015-M77
P/2013 R3-B (Catalina-PANSTARRS),e,0.8655,342.0006,11.2581,3.032418,0.1866468,0.27558301,257.2867,09/17.0/2022,2000,g  9.0,4.0
# From MPC 85835
P/2013 T1 (PANSTARRS),e,24.3030,10.0803,346.1563,5.857375,0.0695264,0.62429099,231.3709,09/17.0/2022,2000,g 16.5,4.0
# From MPC 86643
P/2013 T2 (Schwartz),e,9.4576,0.8003,345.5730,3.491600,0.1510662,0.50114379,154.2504,09/17.0/2022,2000,g 16.0,4.0
# From MPC 91613
P/2013 W1 (PANSTARRS),e,4.6962,117.8418,1.2368,3.487862,0.1513091,0.59281189,111.4829,09/17.0/2022,2000,g 17.5,4.0
# From MPC101095
P/2013 YG46 (Spacewatch),e,7.8575,48.8362,242.5956,3.274006,0.1663737,0.45466194,341.4861,09/17.0/2022,2000,g 10.0,4.0
# From MPC 89728
P/2014 A2 (Hill),e,24.5421,106.6314,356.1504,5.927398,0.0682980,0.64555361,222.9246,09/17.0/2022,2000,g 15.0,4.0
# From MPC 92981
P/2014 A3 (PANSTARRS),e,13.7152,229.9766,214.0767,4.609669,0.0995863,0.24678183,338.3890,09/17.0/2022,2000,g 12.0,4.0
# From MPC102095
P/2014 C1 (TOTAS),e,2.6930,167.8128,23.8992,3.033461,0.1865506,0.45067421,233.2791,09/17.0/2022,2000,g 15.5,4.0
# From MPEC 2022-P82
C/2014 F3 (Sheppard-Trujillo),e,6.5517,326.4854,4.3647,14.66181,0.0175559,0.61084106,8.3493,09/17.0/2022,2000,g  6.0,4.0
# From MPC 98560
P/2014 L2 (NEOWISE),e,5.1994,149.3470,182.7099,6.304879,0.0622571,0.64804625,185.4767,09/17.0/2022,2000,g 12.0,4.0
# From MPC 90769
P/2014 L3 (Hill),e,6.2698,115.4893,178.7020,8.176907,0.0421522,0.77292184,126.4634,09/17.0/2022,2000,g 16.0,4.0
# From MPC 91614
P/2014 M4 (PANSTARRS),e,3.3419,263.1964,148.0197,5.869220,0.0693160,0.59541408,195.4401,09/17.0/2022,2000,g 15.0,4.0
# From MPEC 2022-K19
P/2014 MG4 (Spacewatch-PANSTARRS),e,9.3678,311.7303,299.0559,5.013125,0.0878095,0.25899385,296.6377,09/17.0/2022,2000,g  9.5,4.0
# From MPC 98560
P/2014 O3 (PANSTARRS),e,7.7978,87.6421,204.7703,7.574830,0.0472764,0.38475303,145.2795,09/17.0/2022,2000,g 10.5,4.0
# From MPEC 2022-RD9
C/2014 OG392 (PANSTARRS),e,9.0329,145.7987,254.2841,12.25011,0.0229876,0.18613456,6.5680,09/17.0/2022,2000,g  6.0,4.0
# From MPC 91616
P/2014 U4 (PANSTARRS),e,6.4292,11.8844,347.8196,3.508336,0.1499865,0.46490728,87.0469,09/17.0/2022,2000,g 18.0,4.0
# From MPC 95211
P/2014 V1 (PANSTARRS),e,22.5269,166.2001,177.6433,5.479618,0.0768385,0.53448996,214.3744,09/17.0/2022,2000,g 14.0,4.0
# From MPC 93586
P/2014 W1 (PANSTARRS),e,8.8364,246.2362,152.1477,4.465669,0.1044418,0.38923902,312.1314,09/17.0/2022,2000,g 15.5,4.0
# From MPC105542
P/2014 W4 (PANSTARRS),e,15.2825,33.3849,67.6172,6.589870,0.0582625,0.35308465,142.9060,09/17.0/2022,2000,g 11.0,4.0
# From MPC 94281
P/2014 X1 (Elenin),e,26.0418,61.5550,33.8783,6.205553,0.0637578,0.70937893,179.5631,09/17.0/2022,2000,g 15.0,4.0
# From MPC 92275
P/2015 A3 (PANSTARRS),e,172.5391,277.2961,249.4233,7.814239,0.0451205,0.85044978,124.9349,09/17.0/2022,2000,g 20.0,4.0
# From MPC 99270
P/2015 B1 (PANSTARRS),e,18.0498,352.9324,188.8886,9.492306,0.0337013,0.36665211,86.4007,09/17.0/2022,2000,g  8.5,4.0
# From MPC109141
P/2015 B4 (Lemmon-PANSTARRS),e,1.7627,266.0531,227.2882,8.518893,0.0396396,0.56039568,110.3447,09/17.0/2022,2000,g 11.0,4.0
# From MPC101096
P/2015 C1 (TOTAS-Gibbs),e,13.9131,348.7956,178.1350,6.576129,0.0584452,0.56073256,158.0380,09/17.0/2022,2000,g 12.5,4.0
# From MPC109141
P/2015 D5 (Kowalski),e,20.5287,74.0691,39.6871,8.955903,0.0367739,0.48968584,113.6835,09/17.0/2022,2000,g  9.0,4.0
# From MPC 96866
P/2015 D6 (Lemmon-PANSTARRS),e,20.2045,45.8800,125.0364,7.137271,0.0516899,0.36128580,136.4133,09/17.0/2022,2000,g 10.5,4.0
# From MPEC 2021-P47
P/2015 HG16 (PANSTARRS),e,18.8217,57.6313,47.6563,4.771139,0.0945738,0.35226526,287.6988,09/17.0/2022,2000,g 12.5,4.0
# From MPC 95213
P/2015 K5 (PANSTARRS),e,39.9440,134.2038,106.3356,6.725856,0.0565045,0.55207453,150.5593,09/17.0/2022,2000,g 13.5,4.0
# From MPC107684
P/2015 M2 (PANSTARRS),e,3.9700,86.5848,225.9347,7.241345,0.0505796,0.18005878,129.5111,09/17.0/2022,2000,g  8.5,4.0
# From MPEC 2021-P47
C/2015 O1 (PANSTARRS),h,02/20.1849/2018,127.1871,299.8341,89.5552,1.001480,3.722245,2000,6.5,4.0
# From MPC 99819
P/2015 P4 (PANSTARRS),e,8.7175,104.6952,280.6459,6.046887,0.0662836,0.58564763,160.9969,09/17.0/2022,2000,g 14.0,4.0
# From MPEC 2022-K19
P/2015 PD229 (Cameron-ISON),e,2.0254,342.6517,352.6630,7.191296,0.0511085,0.32774746,132.2244,09/17.0/2022,2000,g 11.5,2.0
# From MPC 96867
P/2015 Q2 (Pimentel),e,146.5434,228.5191,244.6288,7.353160,0.0494303,0.75058299,126.8936,09/17.0/2022,2000,g 15.5,4.0
# From MPC 98562
P/2015 R1 (PANSTARRS),e,22.6957,48.3372,300.5622,5.880352,0.0691193,0.63435193,182.1472,09/17.0/2022,2000,g 14.0,4.0
# From MPC 95734
P/2015 R2 (PANSTARRS),e,15.4854,168.5970,149.8448,4.485859,0.1037375,0.45282805,274.8988,09/17.0/2022,2000,g 14.5,4.0
# From MPC 96280
P/2015 T3 (PANSTARRS),e,13.0937,120.5019,178.6330,4.326181,0.1095335,0.50818108,359.9227,12/21.0/2014,2000,g 14.0,4.0
# From MPC102953
P/2015 TO19 (Lemmon-PANSTARRS),e,6.5004,321.6337,89.1608,4.552555,0.1014662,0.35920265,241.9706,09/17.0/2022,2000,g 14.0,4.0
# From MPC110080
P/2015 TP200 (LINEAR),e,8.7806,7.0200,82.4515,7.265773,0.0503247,0.53599698,108.1822,09/17.0/2022,2000,g 11.0,4.0
# From MPC115881
C/2015 V1 (PANSTARRS),e,139.2304,197.1414,179.6862,2260,0.0000092,0.99810664,0.0000,12/16.4312/2017,2000,g  6.5,4.0
# From MPC101098
P/2015 W2 (Catalina),e,11.6092,294.1690,117.5322,7.291057,0.0500632,0.63510636,127.1770,09/17.0/2022,2000,g 13.0,4.0
# From MPEC 2022-OB6
C/2015 XY1 (Lemmon),h,04/25.7405/2018,148.8516,281.5813,196.1430,1.000054,7.924091,2000,5.5,4.0
# From MPEC 2022-OB6
P/2015 X3 (PANSTARRS),e,24.3997,77.2759,306.7370,5.004022,0.0880492,0.43993989,228.3065,09/17.0/2022,2000,g 15.0,4.0
# From MPC119995
C/2015 X5 (PANSTARRS),e,124.3164,122.3144,27.5510,13905,0.0000006,0.99951137,0.0000,12/27.3583/2017,2000,g  7.5,4.0
# From MPC115881
P/2015 X6 (PANSTARRS),e,4.5647,106.9350,329.7855,2.752635,0.2158148,0.17303574,151.0532,09/17.0/2022,2000,g 16.0,4.0
# From MPEC 2022-O08
C/2016 A1 (PANSTARRS),e,121.2128,128.1765,10.1021,9649,0.0000010,0.99944900,0.0000,11/20.9285/2017,2000,g  6.0,4.0
# From MPC100282
P/2016 A2 (Christensen),e,26.4033,291.6177,141.2948,4.753519,0.0951001,0.27078612,252.3056,09/17.0/2022,2000,g 11.5,4.0
# From MPEC 2022-OB6
P/2016 A3 (PANSTARRS),e,8.5106,187.2286,340.9432,7.881559,0.0445437,0.38605492,87.7371,09/17.0/2022,2000,g 10.0,4.0
# From MPC102098
P/2016 A7 (PANSTARRS),e,16.6030,221.4972,352.5470,5.034804,0.0872429,0.56440309,209.4579,09/17.0/2022,2000,g 16.0,4.0
# From MPC109143
P/2016 BA14 (PANSTARRS),e,18.8968,180.5136,351.9562,3.026331,0.1872102,0.66475773,85.5187,09/17.0/2022,2000,g 21.0,4.0
# From MPEC 2021-P47
P/2016 G1 (PANSTARRS),e,10.9711,204.0200,111.1348,2.582547,0.2374826,0.21083311,129.2317,09/17.0/2022,2000,g 14.0,4.0
# From MPEC 2017-D91
P/2016 J1-A (PANSTARRS),e,14.3289,199.8113,47.0191,3.171997,0.1744636,0.22767017,36.3222,09/17.0/2022,2000,g 16.5,4.0
# From MPEC 2017-A77
P/2016 J1-B (PANSTARRS),e,14.3316,199.8162,46.9103,3.171631,0.1744938,0.22752116,36.4663,09/17.0/2022,2000,g 17.0,4.0
# From MPEC 2022-ED3
C/2016 M1 (PANSTARRS),e,90.8967,92.2522,209.9373,243135,0.0000000,0.99999089,0.0000,08/10.5534/2018,2000,g  5.0,4.0
# From MPEC 2022-OB6
